
    {
      "objectName": "STARLINK-32956",
      "objectId": "2025-076B",
      "noradId": 63570,
      "epochUtc": "2026-03-16T21:06:23.698944Z",
      "meanMotionRevPerDay": 15.27660316,
      "eccentricity": 0.0002446,
      "inclinationDeg": 43.0005,
      "raanDeg": 284.3048,
      "argPerigeeDeg": 282.7642,
      "meanAnomalyDeg": 77.2936,
      "bstar": 0.001417,
      "meanMotionDot": 0.00039034,
      "meanMotionDdot": 0,
      "elementSetNo": 999,
      "revAtEpoch": 5288
    },
    {
      "objectName": "STARLINK-33739",
      "objectId": "2025-076D",
      "noradId": 63572,
      "epochUtc": "2026-03-16T20:43:15.276864Z",
      "meanMotionRevPerDay": 15.27588735,
      "eccentricity": 0.0000801,
      "inclinationDeg": 42.9969,
      "raanDeg": 281.52,
      "argPerigeeDeg": 273.117,
      "meanAnomalyDeg": 86.959,
      "bstar": 0.00054978,
      "meanMotionDot": 0.00014901,
      "meanMotionDdot": 0,
      "elementSetNo": 999,
      "revAtEpoch": 5292
    },
    {
      "objectName": "STARLINK-33683",
      "objectId": "2025-076E",
      "noradId": 63573,
      "epochUtc": "2026-03-16T14:24:47.597760Z",
      "meanMotionRevPerDay": 15.27570638,
      "eccentricity": 0.000243,
      "inclinationDeg": 42.9995,
      "raanDeg": 282.9854,
      "argPerigeeDeg": 271.3844,
      "meanAnomalyDeg": 88.6729,
      "bstar": 0.00062138,
      "meanMotionDot": 0.00016872,
      "meanMotionDdot": 0,
      "elementSetNo": 999,
      "revAtEpoch": 5288
    },
    {
      "objectName": "STARLINK-33755",
      "objectId": "2025-076L",
      "noradId": 63579,
      "epochUtc": "2026-03-16T20:00:40.846176Z",
      "meanMotionRevPerDay": 15.27583028,
      "eccentricity": 0.0001343,
      "inclinationDeg": 43.0013,
      "raanDeg": 281.2165,
      "argPerigeeDeg": 263.0123,
      "meanAnomalyDeg": 97.0576,
      "bstar": 0.00060261,
      "meanMotionDot": 0.00016359,
      "meanMotionDdot": 0,
      "elementSetNo": 999,
      "revAtEpoch": 5292
    },
    {
      "objectName": "STARLINK-33752",
      "objectId": "2025-076M",
      "noradId": 63580,
      "epochUtc": "2026-03-16T20:19:12.254304Z",
      "meanMotionRevPerDay": 15.27621433,
      "eccentricity": 0.0003849,
      "inclinationDeg": 42.9989,
      "raanDeg": 281.3954,
      "argPerigeeDeg": 273.1685,
      "meanAnomalyDeg": 86.8726,
      "bstar": 0.00097854,
      "meanMotionDot": 0.00026801,
      "meanMotionDdot": 0,
      "elementSetNo": 999,
      "revAtEpoch": 5292
    },
    {
      "objectName": "STARLINK-33714",
      "objectId": "2025-076N",
      "noradId": 63581,
      "epochUtc": "2026-03-16T15:05:16.815840Z",
      "meanMotionRevPerDay": 15.27577489,
      "eccentricity": 0.0001657,
      "inclinationDeg": 43.0015,
      "raanDeg": 282.3324,
      "argPerigeeDeg": 263.4843,
      "meanAnomalyDeg": 96.582,
      "bstar": 0.00064815,
      "meanMotionDot": 0.00017615,
      "meanMotionDdot": 0,
      "elementSetNo": 999,
      "revAtEpoch": 5289
    },
    {
      "objectName": "STARLINK-33834",
      "objectId": "2025-076T",
      "noradId": 63586,
      "epochUtc": "2026-03-16T20:09:56.707488Z",
      "meanMotionRevPerDay": 15.27591772,
      "eccentricity": 0.000124,
      "inclinationDeg": 43.0001,
      "raanDeg": 281.3426,
      "argPerigeeDeg": 266.6118,
      "meanAnomalyDeg": 93.4592,
      "bstar": 0.00071861,
      "meanMotionDot": 0.00019572,
      "meanMotionDdot": 0,
      "elementSetNo": 999,
      "revAtEpoch": 5292
    },
    {
      "objectName": "STARLINK-33791",
      "objectId": "2025-076AB",
      "noradId": 63594,
      "epochUtc": "2026-03-16T20:28:27.463296Z",
      "meanMotionRevPerDay": 15.27608142,
      "eccentricity": 0.0001503,
      "inclinationDeg": 42.9947,
      "raanDeg": 281.429,
      "argPerigeeDeg": 247.2593,
      "meanAnomalyDeg": 112.81,
      "bstar": 0.00067317,
      "meanMotionDot": 0.00018324,
      "meanMotionDdot": 0,
      "elementSetNo": 999,
      "revAtEpoch": 5292
    },
    {
      "objectName": "STARLINK-33854",
      "objectId": "2025-083B",
      "noradId": 63635,
      "epochUtc": "2026-03-15T23:52:46.123392Z",
      "meanMotionRevPerDay": 15.2754933,
      "eccentricity": 0.00014139,
      "inclinationDeg": 43.0007,
      "raanDeg": 329.3963,
      "argPerigeeDeg": 265.4581,
      "meanAnomalyDeg": 94.6109,
      "bstar": 0.00091511918,
      "meanMotionDot": 0.00024982,
      "meanMotionDdot": 0,
      "elementSetNo": 999,
      "revAtEpoch": 5103
    },
    {
      "objectName": "STARLINK-11651 [DTC]",
      "objectId": "2025-085A",
      "noradId": 63664,
      "epochUtc": "2026-03-16T19:08:10.194144Z",
      "meanMotionRevPerDay": 15.7086834,
      "eccentricity": 0.000207,
      "inclinationDeg": 42.9983,
      "raanDeg": 235.2207,
      "argPerigeeDeg": 271.154,
      "meanAnomalyDeg": 88.909,
      "bstar": 0.00086156,
      "meanMotionDot": 0.00111735,
      "meanMotionDdot": 0,
      "elementSetNo": 999,
      "revAtEpoch": 5137
    },
    {
      "objectName": "STARLINK-33915",
      "objectId": "2025-087M",
      "noradId": 63708,
      "epochUtc": "2026-03-16T16:59:58.884288Z",
      "meanMotionRevPerDay": 15.30208006,
      "eccentricity": 0.0000921,
      "inclinationDeg": 53.16,
      "raanDeg": 186.9941,
      "argPerigeeDeg": 82.832,
      "meanAnomalyDeg": 277.2786,
      "bstar": 0.00040384,
      "meanMotionDot": 0.00011623,
      "meanMotionDdot": 0,
      "elementSetNo": 999,
      "revAtEpoch": 5027
    },
    {
      "objectName": "STARLINK-33745",
      "objectId": "2025-087T",
      "noradId": 63714,
      "epochUtc": "2026-03-16T16:26:33.349344Z",
      "meanMotionRevPerDay": 15.30211778,
      "eccentricity": 0.0001227,
      "inclinationDeg": 53.1595,
      "raanDeg": 186.8473,
      "argPerigeeDeg": 101.0773,
      "meanAnomalyDeg": 259.0366,
      "bstar": 0.00087163,
      "meanMotionDot": 0.00025554,
      "meanMotionDdot": 0,
      "elementSetNo": 999,
      "revAtEpoch": 5027
    },
    {
      "objectName": "STARLINK-33728",
      "objectId": "2025-087U",
      "noradId": 63715,
      "epochUtc": "2026-03-16T16:37:11.607744Z",
      "meanMotionRevPerDay": 15.30211776,
      "eccentricity": 0.0001333,
      "inclinationDeg": 53.1607,
      "raanDeg": 186.8902,
      "argPerigeeDeg": 98.1554,
      "meanAnomalyDeg": 261.9598,
      "bstar": 0.00073587,
      "meanMotionDot": 0.00021506,
      "meanMotionDdot": 0,
      "elementSetNo": 999,
      "revAtEpoch": 5027
    }