STARLINK-32956          
1 63570U 25076B   26075.87944096  .00039034  00000+0  14170-2 0  9991
2 63570  43.0005 284.3048 0002446 282.7642  77.2936 15.27660316 52885
STARLINK-33739          
1 63572U 25076D   26075.86337126  .00014901  00000+0  54978-3 0  9999
2 63572  42.9969 281.5200 0000801 273.1170  86.9590 15.27588735 52928
STARLINK-33683          
1 63573U 25076E   26075.60055090  .00016872  00000+0  62138-3 0  9995
2 63573  42.9995 282.9854 0002430 271.3844  88.6729 15.27570638 52887
STARLINK-33755          
1 63579U 25076L   26075.83380609  .00016359  00000+0  60261-3 0  9998
2 63579  43.0013 281.2165 0001343 263.0123  97.0576 15.27583028 52929
STARLINK-33752          
1 63580U 25076M   26075.84666961  .00026801  00000+0  97854-3 0  9990
2 63580  42.9989 281.3954 0003849 273.1685  86.8726 15.27621433 52922
STARLINK-33714          
1 63581U 25076N   26075.62866685  .00017615  00000+0  64815-3 0  9996
2 63581  43.0015 282.3324 0001657 263.4843  96.5820 15.27577489 52890
STARLINK-33834          
1 63586U 25076T   26075.84023967  .00019572  00000+0  71861-3 0  9996
2 63586  43.0001 281.3426 0001240 266.6118  93.4592 15.27591772 52927
STARLINK-33791          
1 63594U 25076AB  26075.85309564  .00018324  00000+0  67317-3 0  9991
2 63594  42.9947 281.4290 0001503 247.2593 112.8100 15.27608142 52928
STARLINK-33854          
1 63635U 25083B   26074.99497828  .00024982  00000+0  91512-3 0  9991
2 63635  43.0007 329.3963 0001413 265.4581  94.6109 15.27549330 51031
STARLINK-11651 [DTC]    
1 63664U 25085A   26075.79734021  .00111735  00000+0  86156-3 0  9994
2 63664  42.9983 235.2207 0002070 271.1540  88.9090 15.70868340 51374
STARLINK-33915          
1 63708U 25087M   26075.70832042  .00011623  00000+0  40384-3 0  9996
2 63708  53.1600 186.9941 0000921  82.8320 277.2786 15.30208006 50272
STARLINK-33745          
1 63714U 25087T   26075.68510821  .00025554  00000+0  87163-3 0  9992
2 63714  53.1595 186.8473 0001227 101.0773 259.0366 15.30211778 50279
STARLINK-33728          
1 63715U 25087U   26075.69249546  .00021506  00000+0  73587-3 0  9995
2 63715  53.1607 186.8902 0001333  98.1554 261.9598 15.30211776 50279
